[{"OBJECT_NAME":"ONEWEB-0685","OBJECT_ID":"2022-166AP","EPOCH":"2026-03-09T22:18:59.931648","MEAN_MOTION":13.21812338,"ECCENTRICITY":0.00014155,"INCLINATION":87.9158,"RA_OF_ASC_NODE":263.7781,"ARG_OF_PERICENTER":94.288,"MEAN_ANOMALY":265.8416,"EPHEMERIS_TYPE":0,"CLASSIFICATION_TYPE":"U","NORAD_CAT_ID":54679,"ELEMENT_SET_NO":999,"REV_AT_EPOCH":15830,"BSTAR":-7.1879725e-5,"MEAN_MOTION_DOT":-1.7e-7,"MEAN_MOTION_DDOT":0},{"OBJECT_NAME":"ECHO 2 DEB [METAL OBJ]","OBJECT_ID":"1964-004C","EPOCH":"2026-03-09T15:08:20.746752","MEAN_MOTION":13.26274829,"ECCENTRICITY":0.0170959,"INCLINATION":81.4674,"RA_OF_ASC_NODE":136.5189,"ARG_OF_PERICENTER":7.821,"MEAN_ANOMALY":352.5517,"EPHEMERIS_TYPE":0,"CLASSIFICATION_TYPE":"U","NORAD_CAT_ID":742,"ELEMENT_SET_NO":999,"REV_AT_EPOCH":416,"BSTAR":0.00012585,"MEAN_MOTION_DOT":7.1e-7,"MEAN_MOTION_DDOT":0}]
